CCSDS_OMM_VERS = 2.0
CREATION_DATE  = 
ORIGINATOR     = 

OBJECT_NAME    = STARLINK-35347
OBJECT_ID      = 2025-224AB
CENTER_NAME    = EARTH
REF_FRAME      = TEME
TIME_SYSTEM    = UTC
MEAN_ELEMENT_THEORY = SGP/SGP4

EPOCH          = 2025-10-29T12:00:02.998944
MEAN_MOTION    = 15.51825542
ECCENTRICITY   = .0001292
INCLINATION    = 53.1588
RA_OF_ASC_NODE = 262.6824
ARG_OF_PERICENTER = 84.8233
MEAN_ANOMALY   = 168.4222

EPHEMERIS_TYPE = 0
CLASSIFICATION_TYPE = U
NORAD_CAT_ID   = 65907
ELEMENT_SET_NO = 999
REV_AT_EPOCH   = 477
BSTAR          = -.34606E-1
MEAN_MOTION_DOT = -.1860577E-1
MEAN_MOTION_DDOT = 0

CCSDS_OMM_VERS = 2.0
CREATION_DATE  = 
ORIGINATOR     = 

OBJECT_NAME    = STARLINK-35329
OBJECT_ID      = 2025-224AC
CENTER_NAME    = EARTH
REF_FRAME      = TEME
TIME_SYSTEM    = UTC
MEAN_ELEMENT_THEORY = SGP/SGP4

EPOCH          = 2025-10-29T12:00:02.998944
MEAN_MOTION    = 15.51825757
ECCENTRICITY   = .0001406
INCLINATION    = 53.1589
RA_OF_ASC_NODE = 262.6901
ARG_OF_PERICENTER = 93.4089
MEAN_ANOMALY   = 156.0000

EPHEMERIS_TYPE = 0
CLASSIFICATION_TYPE = U
NORAD_CAT_ID   = 65908
ELEMENT_SET_NO = 999
REV_AT_EPOCH   = 478
BSTAR          = -.3446E-1
MEAN_MOTION_DOT = -.1853728E-1
MEAN_MOTION_DDOT = 0

CCSDS_OMM_VERS = 2.0
CREATION_DATE  = 
ORIGINATOR     = 

OBJECT_NAME    = STARLINK-35387
OBJECT_ID      = 2025-224AD
CENTER_NAME    = EARTH
REF_FRAME      = TEME
TIME_SYSTEM    = UTC
MEAN_ELEMENT_THEORY = SGP/SGP4

EPOCH          = 2025-10-29T12:00:02.998944
MEAN_MOTION    = 15.51826861
ECCENTRICITY   = .0001424
INCLINATION    = 53.1587
RA_OF_ASC_NODE = 262.6780
ARG_OF_PERICENTER = 88.0953
MEAN_ANOMALY   = 167.0657

EPHEMERIS_TYPE = 0
CLASSIFICATION_TYPE = U
NORAD_CAT_ID   = 65909
ELEMENT_SET_NO = 999
REV_AT_EPOCH   = 474
BSTAR          = -.34674E-1
MEAN_MOTION_DOT = -.1863997E-1
MEAN_MOTION_DDOT = 0

CCSDS_OMM_VERS = 2.0
CREATION_DATE  = 
ORIGINATOR     = 

OBJECT_NAME    = STARLINK-35523
OBJECT_ID      = 2025-225A
CENTER_NAME    = EARTH
REF_FRAME      = TEME
TIME_SYSTEM    = UTC
MEAN_ELEMENT_THEORY = SGP/SGP4

EPOCH          = 2025-10-29T12:00:02.998944
MEAN_MOTION    = 15.65495865
ECCENTRICITY   = .0001206
INCLINATION    = 53.1604
RA_OF_ASC_NODE = 58.0995
ARG_OF_PERICENTER = 75.7908
MEAN_ANOMALY   = 134.8347

EPHEMERIS_TYPE = 0
CLASSIFICATION_TYPE = U
NORAD_CAT_ID   = 65910
ELEMENT_SET_NO = 999
REV_AT_EPOCH   = 431
BSTAR          = -.22773E-1
MEAN_MOTION_DOT = -.2039776E-1
MEAN_MOTION_DDOT = 0

CCSDS_OMM_VERS = 2.0
CREATION_DATE  = 
ORIGINATOR     = 

OBJECT_NAME    = STARLINK-35160
OBJECT_ID      = 2025-225B
CENTER_NAME    = EARTH
REF_FRAME      = TEME
TIME_SYSTEM    = UTC
MEAN_ELEMENT_THEORY = SGP/SGP4

EPOCH          = 2025-10-29T12:00:02.998944
MEAN_MOTION    = 15.65495657
ECCENTRICITY   = .0001194
INCLINATION    = 53.1602
RA_OF_ASC_NODE = 58.0960
ARG_OF_PERICENTER = 75.1578
MEAN_ANOMALY   = 137.3839

EPHEMERIS_TYPE = 0
CLASSIFICATION_TYPE = U
NORAD_CAT_ID   = 65911
ELEMENT_SET_NO = 999
REV_AT_EPOCH   = 426
BSTAR          = -.22764E-1
MEAN_MOTION_DOT = -.2039069E-1
MEAN_MOTION_DDOT = 0

CCSDS_OMM_VERS = 2.0
CREATION_DATE  = 
ORIGINATOR     = 

OBJECT_NAME    = STARLINK-35508
OBJECT_ID      = 2025-225C
CENTER_NAME    = EARTH
REF_FRAME      = TEME
TIME_SYSTEM    = UTC
MEAN_ELEMENT_THEORY = SGP/SGP4

EPOCH          = 2025-10-29T12:00:02.998944
MEAN_MOTION    = 15.65496694
ECCENTRICITY   = .0001226
INCLINATION    = 53.1608
RA_OF_ASC_NODE = 58.0908
ARG_OF_PERICENTER = 77.1550
MEAN_ANOMALY   = 137.3031

EPHEMERIS_TYPE = 0
CLASSIFICATION_TYPE = U
NORAD_CAT_ID   = 65912
ELEMENT_SET_NO = 999
REV_AT_EPOCH   = 426
BSTAR          = -.22776E-1
MEAN_MOTION_DOT = -.2040075E-1
MEAN_MOTION_DDOT = 0

CCSDS_OMM_VERS = 2.0
CREATION_DATE  = 
ORIGINATOR     = 

OBJECT_NAME    = STARLINK-35472
OBJECT_ID      = 2025-225D
CENTER_NAME    = EARTH
REF_FRAME      = TEME
TIME_SYSTEM    = UTC
MEAN_ELEMENT_THEORY = SGP/SGP4

EPOCH          = 2025-10-29T12:00:02.998944
MEAN_MOTION    = 15.65494642
ECCENTRICITY   = .0001181
INCLINATION    = 53.1604
RA_OF_ASC_NODE = 58.0867
ARG_OF_PERICENTER = 76.5865
MEAN_ANOMALY   = 139.7872

EPHEMERIS_TYPE = 0
CLASSIFICATION_TYPE = U
NORAD_CAT_ID   = 65913
ELEMENT_SET_NO = 999
REV_AT_EPOCH   = 430
BSTAR          = -.22717E-1
MEAN_MOTION_DOT = -.2035256E-1
MEAN_MOTION_DDOT = 0

CCSDS_OMM_VERS = 2.0
CREATION_DATE  = 
ORIGINATOR     = 

OBJECT_NAME    = STARLINK-35524
OBJECT_ID      = 2025-225E
CENTER_NAME    = EARTH
REF_FRAME      = TEME
TIME_SYSTEM    = UTC
MEAN_ELEMENT_THEORY = SGP/SGP4

EPOCH          = 2025-10-29T12:00:02.998944
MEAN_MOTION    = 15.65500360
ECCENTRICITY   = .0001177
INCLINATION    = 53.1601
RA_OF_ASC_NODE = 58.0835
ARG_OF_PERICENTER = 84.4516
MEAN_ANOMALY   = 133.8386

EPHEMERIS_TYPE = 0
CLASSIFICATION_TYPE = U
NORAD_CAT_ID   = 65914
ELEMENT_SET_NO = 999
REV_AT_EPOCH   = 431
BSTAR          = -.22822E-1
MEAN_MOTION_DOT = -.204389E-1
MEAN_MOTION_DDOT = 0

CCSDS_OMM_VERS = 2.0
CREATION_DATE  = 
ORIGINATOR     = 

OBJECT_NAME    = STARLINK-35539
OBJECT_ID      = 2025-225F
CENTER_NAME    = EARTH
REF_FRAME      = TEME
TIME_SYSTEM    = UTC
MEAN_ELEMENT_THEORY = SGP/SGP4

EPOCH          = 2025-10-29T12:00:02.998944
MEAN_MOTION    = 15.54107585
ECCENTRICITY   = .0001258
INCLINATION    = 53.1595
RA_OF_ASC_NODE = 58.2873
ARG_OF_PERICENTER = 70.1882
MEAN_ANOMALY   = 47.5121

EPHEMERIS_TYPE = 0
CLASSIFICATION_TYPE = U
NORAD_CAT_ID   = 65915
ELEMENT_SET_NO = 999
REV_AT_EPOCH   = 426
BSTAR          = -.43221E-1
MEAN_MOTION_DOT = -.2531489E-1
MEAN_MOTION_DDOT = 0

CCSDS_OMM_VERS = 2.0
CREATION_DATE  = 
ORIGINATOR     = 

OBJECT_NAME    = STARLINK-35521
OBJECT_ID      = 2025-225G
CENTER_NAME    = EARTH
REF_FRAME      = TEME
TIME_SYSTEM    = UTC
MEAN_ELEMENT_THEORY = SGP/SGP4

EPOCH          = 2025-10-29T12:00:02.998944
MEAN_MOTION    = 15.65496678
ECCENTRICITY   = .0001258
INCLINATION    = 53.1607
RA_OF_ASC_NODE = 58.0742
ARG_OF_PERICENTER = 82.8729
MEAN_ANOMALY   = 139.2526

EPHEMERIS_TYPE = 0
CLASSIFICATION_TYPE = U
NORAD_CAT_ID   = 65916
ELEMENT_SET_NO = 999
REV_AT_EPOCH   = 431
BSTAR          = -.22768E-1
MEAN_MOTION_DOT = -.2039499E-1
MEAN_MOTION_DDOT = 0

CCSDS_OMM_VERS = 2.0
CREATION_DATE  = 
ORIGINATOR     = 

OBJECT_NAME    = STARLINK-35478
OBJECT_ID      = 2025-225H
CENTER_NAME    = EARTH
REF_FRAME      = TEME
TIME_SYSTEM    = UTC
MEAN_ELEMENT_THEORY = SGP/SGP4

EPOCH          = 2025-10-29T12:00:02.998944
MEAN_MOTION    = 15.65495703
ECCENTRICITY   = .0001155
INCLINATION    = 53.1605
RA_OF_ASC_NODE = 58.0665
ARG_OF_PERICENTER = 81.0948
MEAN_ANOMALY   = 144.8650

EPHEMERIS_TYPE = 0
CLASSIFICATION_TYPE = U
NORAD_CAT_ID   = 65917
ELEMENT_SET_NO = 999
REV_AT_EPOCH   = 426
BSTAR          = -.2276E-1
MEAN_MOTION_DOT = -.2038673E-1
MEAN_MOTION_DDOT = 0

CCSDS_OMM_VERS = 2.0
CREATION_DATE  = 
ORIGINATOR     = 

OBJECT_NAME    = STARLINK-35516
OBJECT_ID      = 2025-225J
CENTER_NAME    = EARTH
REF_FRAME      = TEME
TIME_SYSTEM    = UTC
MEAN_ELEMENT_THEORY = SGP/SGP4

EPOCH          = 2025-10-29T12:00:02.998944
MEAN_MOTION    = 15.65497670
ECCENTRICITY   = .0001153
INCLINATION    = 53.1603
RA_OF_ASC_NODE = 58.0706
ARG_OF_PERICENTER = 78.8795
MEAN_ANOMALY   = 145.1641

EPHEMERIS_TYPE = 0
CLASSIFICATION_TYPE = U
NORAD_CAT_ID   = 65918
ELEMENT_SET_NO = 999
REV_AT_EPOCH   = 431
BSTAR          = -.22809E-1
MEAN_MOTION_DOT = -.2042683E-1
MEAN_MOTION_DDOT = 0

