STARLINK-35347          
1 65907U 25224AB  25302.50003471 -.01860577  00000+0 -34606-1 0  9999
2 65907  53.1588 262.6824 0001292  84.8233 168.4222 15.51825542  4772
STARLINK-35329          
1 65908U 25224AC  25302.50003471 -.01853728  00000+0 -34460-1 0  9998
2 65908  53.1589 262.6901 0001406  93.4089 156.0000 15.51825757  4788
STARLINK-35387          
1 65909U 25224AD  25302.50003471 -.01863997  00000+0 -34674-1 0  9995
2 65909  53.1587 262.6780 0001424  88.0953 167.0657 15.51826861  4745
STARLINK-35523          
1 65910U 25225A   25302.50003471 -.02039776  00000+0 -22773-1 0  9996
2 65910  53.1604  58.0995 0001206  75.7908 134.8347 15.65495865  4315
STARLINK-35160          
1 65911U 25225B   25302.50003471 -.02039069  00000+0 -22764-1 0  9992
2 65911  53.1602  58.0960 0001194  75.1578 137.3839 15.65495657  4266
STARLINK-35508          
1 65912U 25225C   25302.50003471 -.02040075  00000+0 -22776-1 0  9995
2 65912  53.1608  58.0908 0001226  77.1550 137.3031 15.65496694  4269
STARLINK-35472          
1 65913U 25225D   25302.50003471 -.02035256  00000+0 -22717-1 0  9996
2 65913  53.1604  58.0867 0001181  76.5865 139.7872 15.65494642  4307
STARLINK-35524          
1 65914U 25225E   25302.50003471 -.02043890  00000+0 -22822-1 0  9997
2 65914  53.1601  58.0835 0001177  84.4516 133.8386 15.65500360  4317
STARLINK-35539          
1 65915U 25225F   25302.50003471 -.02531489  00000+0 -43221-1 0  9990
2 65915  53.1595  58.2873 0001258  70.1882  47.5121 15.54107585  4264
STARLINK-35521          
1 65916U 25225G   25302.50003471 -.02039499  00000+0 -22768-1 0  9998
2 65916  53.1607  58.0742 0001258  82.8729 139.2526 15.65496678  4312
STARLINK-35478          
1 65917U 25225H   25302.50003471 -.02038673  00000+0 -22760-1 0  9994
2 65917  53.1605  58.0665 0001155  81.0948 144.8650 15.65495703  4267
STARLINK-35516          
1 65918U 25225J   25302.50003471 -.02042683  00000+0 -22809-1 0  9995
2 65918  53.1603  58.0706 0001153  78.8795 145.1641 15.65497670  4319
